start=new Date('2022-04-18T00:00:00.000Z').valueOf();
sats=[{"RCS_SIZE":"LARGE","OBJECT_NAME":"STARLINK-2411","CLASSIFICATION_TYPE":"U","SITE":"AFETR","EPOCH":"2022-04-17T20:34:13.269792","TLE_LINE1":"1 47826U 21018AR  22107.85709803  .00000078  00000-0  24140-4 0  9991","OBJECT_TYPE":"PAYLOAD","RA_OF_ASC_NODE":"154.4829","ARG_OF_PERICENTER":"41.8804","EPHEMERIS_TYPE":"0","MEAN_MOTION_DDOT":"0.0000000000000","ECCENTRICITY":"0.00021870","OBJECT_ID":"2021-018AR","PERIAPSIS":"545.725","MEAN_ANOMALY":"318.2352","MEAN_ELEMENT_THEORY":"SGP4","INCLINATION":"53.0522","GP_ID":"201496152","FILE":"3405839","DECAY_DATE":null,"ELEMENT_SET_NO":"999","CENTER_NAME":"EARTH","TLE_LINE2":"2 47826  53.0522 154.4829 0002187  41.8804 318.2352 15.06391349 62296","MEAN_MOTION_DOT":"0.00000078","REF_FRAME":"TEME","PERIOD":"95.593","COUNTRY_CODE":"US","REV_AT_EPOCH":"6229","SEMIMAJOR_AXIS":"6925.375","TIME_SYSTEM":"UTC","LAUNCH_DATE":"2021-03-11","NORAD_CAT_ID":"47826","APOAPSIS":"548.755","BSTAR":"0.00002414000000","MEAN_MOTION":"15.06391349"},{"BSTAR":"-0.00010556000000","MEAN_MOTION":"15.06389298","REV_AT_EPOCH":"6248","SEMIMAJOR_AXIS":"6925.381","APOAPSIS":"548.251","NORAD_CAT_ID":"47827","LAUNCH_DATE":"2021-03-11","TIME_SYSTEM":"UTC","REF_FRAME":"TEME","MEAN_MOTION_DOT":"-0.00001853","COUNTRY_CODE":"US","PERIOD":"95.593","CENTER_NAME":"EARTH","TLE_LINE2":"2 47827  53.0526 144.6605 0001451  65.2777 294.8363 15.06389298 62488","GP_ID":"201494411","FILE":"3405839","DECAY_DATE":null,"MEAN_ELEMENT_THEORY":"SGP4","INCLINATION":"53.0526","ELEMENT_SET_NO":"999","OBJECT_ID":"2021-018AS","MEAN_MOTION_DDOT":"0.0000000000000","ECCENTRICITY":"0.00014510","MEAN_ANOMALY":"294.8363","PERIAPSIS":"546.241","EPOCH":"2022-04-17T19:35:48.711264","TLE_LINE1":"1 47827U 21018AS  22107.81653601 -.00001853  00000-0 -10556-3 0  9991","EPHEMERIS_TYPE":"0","OBJECT_TYPE":"PAYLOAD","RA_OF_ASC_NODE":"144.6605","ARG_OF_PERICENTER":"65.2777","OBJECT_NAME":"STARLINK-2413","RCS_SIZE":"LARGE","SITE":"AFETR","CLASSIFICATION_TYPE":"U"},{"TLE_LINE1":"1 47828U 21018AT  22107.64239766 -.00000144  00000-0  92437-5 0  9996","EPOCH":"2022-04-17T15:25:03.157824","OBJECT_TYPE":"PAYLOAD","RA_OF_ASC_NODE":"165.4456","ARG_OF_PERICENTER":"43.3370","EPHEMERIS_TYPE":"0","RCS_SIZE":"LARGE","OBJECT_NAME":"STARLINK-2415","CLASSIFICATION_TYPE":"U","SITE":"AFETR","MEAN_ELEMENT_THEORY":"SGP4","INCLINATION":"53.0524","GP_ID":"201494661","FILE":"3405839","DECAY_DATE":null,"ELEMENT_SET_NO":"999","MEAN_MOTION_DDOT":"0.0000000000000","ECCENTRICITY":"0.00019250","OBJECT_ID":"2021-018AT","PERIAPSIS":"545.939","MEAN_ANOMALY":"316.7770","MEAN_MOTION_DOT":"-0.00000144","REF_FRAME":"TEME","PERIOD":"95.593","COUNTRY_CODE":"US","CENTER_NAME":"EARTH","TLE_LINE2":"2 47828  53.0524 165.4456 0001925  43.3370 316.7770 15.06380727 62129","BSTAR":"0.00000924370000","MEAN_MOTION":"15.06380727","SEMIMAJOR_AXIS":"6925.408","REV_AT_EPOCH":"6212","TIME_SYSTEM":"UTC","LAUNCH_DATE":"2021-03-11","NORAD_CAT_ID":"47828","APOAPSIS":"548.606"},{"BSTAR":"-0.00004794900000","MEAN_MOTION":"15.06398256","REV_AT_EPOCH":"6214","SEMIMAJOR_AXIS":"6925.354","TIME_SYSTEM":"UTC","LAUNCH_DATE":"2021-03-11","NORAD_CAT_ID":"47829","APOAPSIS":"548.341","MEAN_MOTION_DOT":"-0.00000996","REF_FRAME":"TEME","PERIOD":"95.592","COUNTRY_CODE":"US","CENTER_NAME":"EARTH","TLE_LINE2":"2 47829  53.0533 164.4696 0001620  54.6731 305.4409 15.06398256 62145","MEAN_ELEMENT_THEORY":"SGP4","INCLINATION":"53.0533","GP_ID":"201495904","FILE":"3405839","DECAY_DATE":null,"ELEMENT_SET_NO":"999","MEAN_MOTION_DDOT":"0.0000000000000","ECCENTRICITY":"0.00016200","OBJECT_ID":"2021-018AU","PERIAPSIS":"546.097","MEAN_ANOMALY":"305.4409","TLE_LINE1":"1 47829U 21018AU  22107.85985541 -.00000996  00000-0 -47949-4 0  9992","EPOCH":"2022-04-17T20:38:11.507424","OBJECT_TYPE":"PAYLOAD","RA_OF_ASC_NODE":"164.4696","ARG_OF_PERICENTER":"54.6731","EPHEMERIS_TYPE":"0","RCS_SIZE":"MEDIUM","OBJECT_NAME":"STARLINK-2416","CLASSIFICATION_TYPE":"U","SITE":"AFETR"},{"ELEMENT_SET_NO":"999","MEAN_ELEMENT_THEORY":"SGP4","INCLINATION":"53.0544","GP_ID":"201495661","DECAY_DATE":null,"FILE":"3405839","PERIAPSIS":"545.947","MEAN_ANOMALY":"311.9804","MEAN_MOTION_DDOT":"0.0000000000000","ECCENTRICITY":"0.00018330","OBJECT_ID":"2021-018AV","OBJECT_TYPE":"PAYLOAD","RA_OF_ASC_NODE":"164.4850","ARG_OF_PERICENTER":"48.1341","EPHEMERIS_TYPE":"0","EPOCH":"2022-04-17T20:32:53.335968","TLE_LINE1":"1 47830U 21018AV  22107.85617287  .00000275  00000-0  37349-4 0  9994","CLASSIFICATION_TYPE":"U","SITE":"AFETR","RCS_SIZE":"LARGE","OBJECT_NAME":"STARLINK-2419","MEAN_MOTION":"15.06399137","BSTAR":"0.00003734900000","TIME_SYSTEM":"UTC","LAUNCH_DATE":"2021-03-11","NORAD_CAT_ID":"47830","APOAPSIS":"548.486","SEMIMAJOR_AXIS":"6925.351","REV_AT_EPOCH":"6214","PERIOD":"95.592","COUNTRY_CODE":"US","MEAN_MOTION_DOT":"0.00000275","REF_FRAME":"TEME","TLE_LINE2":"2 47830  53.0544 164.4850 0001833  48.1341 311.9804 15.06399137 62142","CENTER_NAME":"EARTH"},{"SITE":"AFETR","CLASSIFICATION_TYPE":"U","OBJECT_NAME":"STARLINK-2420","RCS_SIZE":"LARGE","EPHEMERIS_TYPE":"0","OBJECT_TYPE":"PAYLOAD","ARG_OF_PERICENTER":"46.0132","RA_OF_ASC_NODE":"139.7720","TLE_LINE1":"1 47831U 21018AW  22107.79029989 -.00000830  00000-0 -36827-4 0  9993","EPOCH":"2022-04-17T18:58:01.910496","MEAN_ANOMALY":"314.1007","PERIAPSIS":"545.981","OBJECT_ID":"2021-018AW","MEAN_MOTION_DDOT":"0.0000000000000","ECCENTRICITY":"0.00018200","ELEMENT_SET_NO":"999","GP_ID":"201494903","FILE":"3405839","DECAY_DATE":null,"MEAN_ELEMENT_THEORY":"SGP4","INCLINATION":"53.0573","TLE_LINE2":"2 47831  53.0573 139.7720 0001820  46.0132 314.1007 15.06390910 62541","CENTER_NAME":"EARTH","COUNTRY_CODE":"US","PERIOD":"95.593","REF_FRAME":"TEME","MEAN_MOTION_DOT":"-0.00000830","NORAD_CAT_ID":"47831","APOAPSIS":"548.502","LAUNCH_DATE":"2021-03-11","TIME_SYSTEM":"UTC","SEMIMAJOR_AXIS":"6925.376","REV_AT_EPOCH":"6254","MEAN_MOTION":"15.06390910","BSTAR":"-0.00003682700000"},{"MEAN_MOTION":"15.06388916","BSTAR":"-0.00004543500000","LAUNCH_DATE":"2021-03-11","TIME_SYSTEM":"UTC","NORAD_CAT_ID":"47832","APOAPSIS":"548.242","SEMIMAJOR_AXIS":"6925.383","REV_AT_EPOCH":"6225","PERIOD":"95.593","COUNTRY_CODE":"US","MEAN_MOTION_DOT":"-0.00000958","REF_FRAME":"TEME","TLE_LINE2":"2 47832  53.0531 155.5743 0001436  63.5168 296.5968 15.06388916 62253","CENTER_NAME":"EARTH","ELEMENT_SET_NO":"999","INCLINATION":"53.0531","MEAN_ELEMENT_THEORY":"SGP4","FILE":"3405839","DECAY_DATE":null,"GP_ID":"201495153","PERIAPSIS":"546.253","MEAN_ANOMALY":"296.5968","ECCENTRICITY":"0.00014360","MEAN_MOTION_DDOT":"0.0000000000000","OBJECT_ID":"2021-018AX","ARG_OF_PERICENTER":"63.5168","RA_OF_ASC_NODE":"155.5743","OBJECT_TYPE":"PAYLOAD","EPHEMERIS_TYPE":"0","EPOCH":"2022-04-17T14:43:54.898176","TLE_LINE1":"1 47832U 21018AX  22107.61382984 -.00000958  00000-0 -45435-4 0  9998","CLASSIFICATION_TYPE":"U","SITE":"AFETR","RCS_SIZE":"LARGE","OBJECT_NAME":"STARLINK-2422"},{"BSTAR":"-0.00013432000000","MEAN_MOTION":"15.06384101","REV_AT_EPOCH":"6231","SEMIMAJOR_AXIS":"6925.397","APOAPSIS":"548.496","NORAD_CAT_ID":"47833","TIME_SYSTEM":"UTC","LAUNCH_DATE":"2021-03-11","REF_FRAME":"TEME","MEAN_MOTION_DOT":"-0.00002281","COUNTRY_CODE":"US","PERIOD":"95.593","CENTER_NAME":"EARTH","TLE_LINE2":"2 47833  53.0533 155.4641 0001781  51.6387 308.4762 15.06384101 62310","GP_ID":"201495413","FILE":"3405839","DECAY_DATE":null,"MEAN_ELEMENT_THEORY":"SGP4","INCLINATION":"53.0533","ELEMENT_SET_NO":"999","OBJECT_ID":"2021-018AY","MEAN_MOTION_DDOT":"0.0000000000000","ECCENTRICITY":"0.00017810","MEAN_ANOMALY":"308.4762","PERIAPSIS":"546.029","EPOCH":"2022-04-17T15:21:04.407840","TLE_LINE1":"1 47833U 21018AY  22107.63963435 -.00002281  00000-0 -13432-3 0  9999","EPHEMERIS_TYPE":"0","OBJECT_TYPE":"PAYLOAD","RA_OF_ASC_NODE":"155.4641","ARG_OF_PERICENTER":"51.6387","OBJECT_NAME":"STARLINK-2423","RCS_SIZE":"LARGE","SITE":"AFETR","CLASSIFICATION_TYPE":"U"},{"TLE_LINE2":"2 47834  53.0533 156.2991 0001640  54.2528 305.8613 15.06382226 62286","CENTER_NAME":"EARTH","COUNTRY_CODE":"US","PERIOD":"95.593","REF_FRAME":"TEME","MEAN_MOTION_DOT":"-0.00001981","APOAPSIS":"548.404","NORAD_CAT_ID":"47834","TIME_SYSTEM":"UTC","LAUNCH_DATE":"2021-03-11","SEMIMAJOR_AXIS":"6925.403","REV_AT_EPOCH":"6228","MEAN_MOTION":"15.06382226","BSTAR":"-0.00011420000000","SITE":"AFETR","CLASSIFICATION_TYPE":"U","OBJECT_NAME":"STARLINK-2424","RCS_SIZE":"LARGE","EPHEMERIS_TYPE":"0","ARG_OF_PERICENTER":"54.2528","RA_OF_ASC_NODE":"156.2991","OBJECT_TYPE":"PAYLOAD","TLE_LINE1":"1 47834U 21018AZ  22107.45165665 -.00001981  00000-0 -11420-3 0  9990","EPOCH":"2022-04-17T10:50:23.134560","MEAN_ANOMALY":"305.8613","PERIAPSIS":"546.132","OBJECT_ID":"2021-018AZ","ECCENTRICITY":"0.00016400","MEAN_MOTION_DDOT":"0.0000000000000","ELEMENT_SET_NO":"999","DECAY_DATE":null,"FILE":"3405596","GP_ID":"201465926","INCLINATION":"53.0533","MEAN_ELEMENT_THEORY":"SGP4"},{"CENTER_NAME":"EARTH","TLE_LINE2":"2 47835  53.0508 159.4316 0001401  57.0081 303.1043 15.06383258 62212","MEAN_MOTION_DOT":"-0.00002392","REF_FRAME":"TEME","PERIOD":"95.593","COUNTRY_CODE":"US","REV_AT_EPOCH":"6221","SEMIMAJOR_AXIS":"6925.400","LAUNCH_DATE":"2021-03-11","TIME_SYSTEM":"UTC","APOAPSIS":"548.235","NORAD_CAT_ID":"47835","BSTAR":"-0.00014182000000","MEAN_MOTION":"15.06383258","RCS_SIZE":"LARGE","OBJECT_NAME":"STARLINK-2425","CLASSIFICATION_TYPE":"U","SITE":"AFETR","TLE_LINE1":"1 47835U 21018BA  22107.86491540 -.00002392  00000-0 -14182-3 0  9995","EPOCH":"2022-04-17T20:45:28.690560","RA_OF_ASC_NODE":"159.4316","ARG_OF_PERICENTER":"57.0081","OBJECT_TYPE":"PAYLOAD","EPHEMERIS_TYPE":"0","ECCENTRICITY":"0.00014010","MEAN_MOTION_DDOT":"0.0000000000000","OBJECT_ID":"2021-018BA","PERIAPSIS":"546.295","MEAN_ANOMALY":"303.1043","INCLINATION":"53.0508","MEAN_ELEMENT_THEORY":"SGP4","FILE":"3405839","DECAY_DATE":null,"GP_ID":"201494412","ELEMENT_SET_NO":"999"}];
